NORAD_CAT_ID,OBJECT_NAME,OBJECT_TYPE,EPOCH,MEAN_MOTION,ECCENTRICITY,INCLINATION,RA_OF_ASC_NODE,ARG_OF_PERICENTER,MEAN_ANOMALY,BSTAR,MEAN_MOTION_DOT,MEAN_MOTION_DDOT,TLE_LINE0,TLE_LINE1,TLE_LINE2,SEMIMAJOR_AXIS,PERIOD,APOGEE,PERIGEE,DECAYED
50169.0,STARLINK-3301,PAYLOAD,2022-10-29 09:13:48,15.08843316,0.0002621,53.2171,358.7128,29.6514,330.4626,-3.7282e-05,-8.82e-06,0.0,0 STARLINK-3301,1 50169U 21125P   22302.38458405 -.00000882  00000-0 -37282-4 0  9994,2 50169  53.2171 358.7128 0002621  29.6514 330.4626 15.08843316 51328,6917.87,95.437,541.548,537.922,0.0
50169.0,STARLINK-3301,PAYLOAD,2022-10-29 20:21:28,15.08857387,0.0002479,53.2171,356.6326,25.1817,334.9296,6.373e-05,7.26e-06,0.0,0 STARLINK-3301,1 50169U 21125P   22302.84824831  .00000726  00000-0  63730-4 0  9997,2 50169  53.2171 356.6326 0002479  25.1817 334.9296 15.08857387 48302,6917.8269999999975,95.436,541.4069999999998,537.977,0.0
50169.0,STARLINK-3301,PAYLOAD,2022-10-30 10:39:55,15.08872532,0.0002471,53.2166,353.9554,24.1216,335.9892,-0.00049872,-8.224e-05,0.0,0 STARLINK-3301,1 50169U 21125P   22303.44439811 -.00008224  00000-0 -49872-3 0  9997,2 50169  53.2166 353.9554 0002471  24.1216 335.9892 15.08872532 51488,6917.781,95.435,541.355,537.937,0.0
50169.0,STARLINK-3301,PAYLOAD,2022-10-30 13:50:43,15.0883535,0.0002759,53.2163,353.3611,26.1368,333.9763,-0.00010387,-1.941e-05,0.0,0 STARLINK-3301,1 50169U 21125P   22303.57689660 -.00001941  00000-0 -10387-3 0  9998,2 50169  53.2163 353.3611 0002759  26.1368 333.9763 15.08835350 51507,6917.895,95.438,541.668,537.851,0.0
50169.0,STARLINK-3301,PAYLOAD,2022-10-31 12:06:08,15.08828704,0.0002658999999999,53.2166,349.2008,28.6299,331.4839,-5.6114e-05,-1.181e-05,0.0,0 STARLINK-3301,1 50169U 21125P   22304.50426165 -.00001181  00000-0 -56114-4 0  9996,2 50169  53.2166 349.2008 0002659  28.6299 331.4839 15.08828704 51640,6917.915,95.438,541.619,537.94,0.0
50169.0,STARLINK-3301,PAYLOAD,2022-11-01 11:56:55,15.08840669,0.0002702,53.2165,344.7383,37.8405,322.2777,2.6924e-05,1.4e-06,0.0,0 STARLINK-3301,1 50169U 21125P   22305.49786111  .00000140  00000-0  26924-4 0  9993,2 50169  53.2165 344.7383 0002702  37.8405 322.2777 15.08840669 48701,6917.878000000002,95.438,541.613,537.874,0.0
50169.0,STARLINK-3301,PAYLOAD,2022-11-01 15:07:41,15.08843073,0.0002835,53.2162,344.1425,27.8733,332.2411,0.00011886,1.604e-05,0.0,0 STARLINK-3301,1 50169U 21125P   22305.63034024  .00001604  00000-0  11886-3 0  9994,2 50169  53.2162 344.1425 0002835  27.8733 332.2411 15.08843073 51813,6917.871,95.437,541.697,537.775,0.0
50169.0,STARLINK-3301,PAYLOAD,2022-11-02 11:47:43,15.08831656,0.0002758,53.2162,340.2757,30.0524,330.0626,1.3026e-05,-8.1e-07,0.0,0 STARLINK-3301,1 50169U 21125P   22306.49147122 -.00000081  00000-0  13026-4 0  9991,2 50169  53.2162 340.2757 0002758  30.0524 330.0626 15.08831656 51948,6917.906,95.438,541.679,537.863,0.0
50169.0,STARLINK-3301,PAYLOAD,2022-11-02 19:44:38,15.08841273,0.0002757,53.2161,338.7891,29.7989,330.316,0.00019171,2.764e-05,0.0,0 STARLINK-3301,1 50169U 21125P   22306.82266814  .00002764  00000-0  19171-3 0  9993,2 50169  53.2161 338.7891 0002757  29.7989 330.3160 15.08841273 51994,6917.876,95.437,541.649,537.8340000000002,0.0
50169.0,STARLINK-3301,PAYLOAD,2022-11-03 11:38:29,15.08846514,0.00028,53.2162,335.8157,30.9712,329.1445,0.00021143,3.079e-05,0.0,0 STARLINK-3301,1 50169U 21125P   22307.48506780  .00003079  00000-0  21143-3 0  9997,2 50169  53.2162 335.8157 0002800  30.9712 329.1445 15.08846514 52092,6917.86,95.437,541.6619999999998,537.788,0.0
50169.0,STARLINK-3301,PAYLOAD,2022-11-03 13:13:52,15.08850042,0.0002772,53.216,335.5181,29.3939,330.7208,0.0002658,3.946e-05,0.0,0 STARLINK-3301,1 50169U 21125P   22307.55130625  .00003946  00000-0  26580-3 0  9999,2 50169  53.2160 335.5181 0002772  29.3939 330.7208 15.08850042 52103,6917.85,95.437,541.632,537.797,0.0
50169.0,STARLINK-3301,PAYLOAD,2022-11-04 01:56:57,15.08859452,0.0002791,53.2159,333.139,29.94,330.1751,0.00032965,4.965e-05,0.0,0 STARLINK-3301,1 50169U 21125P   22308.08121906  .00004965  00000-0  32965-3 0  9996,2 50169  53.2159 333.1390 0002791  29.9400 330.1751 15.08859452 49092,6917.821,95.436,541.617,537.755,0.0
50169.0,STARLINK-3301,PAYLOAD,2022-11-04 11:29:16,15.08847085,0.0002804,53.2155,331.3552,27.062,333.0518,0.00020895,3.039e-05,0.0,0 STARLINK-3301,1 50169U 21125P   22308.47866385  .00003039  00000-0  20895-3 0  9996,2 50169  53.2155 331.3552 0002804  27.0620 333.0518 15.08847085 49155,6917.859,95.437,541.664,537.784,0.0
50169.0,STARLINK-3301,PAYLOAD,2022-11-04 13:04:39,15.08846682,0.0002842,53.2153,331.0585,25.118,334.995,0.0001851,2.659e-05,0.0,0 STARLINK-3301,1 50169U 21125P   22308.54490367  .00002659  00000-0  18510-3 0  9995,2 50169  53.2153 331.0585 0002842  25.1180 334.9950 15.08846682 52255,6917.86,95.437,541.691,537.759,0.0
50169.0,STARLINK-3301,PAYLOAD,2022-11-05 11:20:04,15.08820387,0.0002858,53.2156,326.8944,24.2202,335.8924,-0.00030947,-5.208e-05,0.0,0 STARLINK-3301,1 50169U 21125P   22309.47227609 -.00005208  00000-0 -30947-3 0  9998,2 50169  53.2156 326.8944 0002858  24.2202 335.8924 15.08820387 49308,6917.94,95.439,541.7819999999998,537.828,0.0
50169.0,STARLINK-3301,PAYLOAD,2022-11-05 12:55:27,15.08818506,0.0002856999999999,53.2155,326.5974,24.5798,335.533,-0.00044077,-7.293e-05,0.0,0 STARLINK-3301,1 50169U 21125P   22309.53851394 -.00007293  00000-0 -44077-3 0  9994,2 50169  53.2155 326.5974 0002857  24.5798 335.5330 15.08818506 52402,6917.946,95.439,541.788,537.835,0.0
50169.0,STARLINK-3301,PAYLOAD,2022-11-06 04:49:19,15.08823454,0.0002787,53.2157,323.624,22.136,337.9752,-6.6186e-05,-1.341e-05,0.0,0 STARLINK-3301,1 50169U 21125P   22310.20091939 -.00001341  00000-0 -66186-4 0  9995,2 50169  53.2157 323.6240 0002787  22.1360 337.9752 15.08823454 49418,6917.931,95.439,541.724,537.868,0.0
50169.0,STARLINK-3301,PAYLOAD,2022-11-06 11:10:52,15.08829409,0.0002747,53.2155,322.4346,20.3952,339.7149,0.00084077,0.00013115,0.0,0 STARLINK-3301,1 50169U 21125P   22310.46588291  .00013115  00000-0  84077-3 0  9993,2 50169  53.2155 322.4346 0002747  20.3952 339.7149 15.08829409 52547,6917.913000000001,95.438,541.678,537.877,0.0
50169.0,STARLINK-3301,PAYLOAD,2022-11-06 17:32:24,15.0884019,0.0002739,53.2154,321.245,21.3693,338.7413,0.0011101,0.00017424,0.0,0 STARLINK-3301,1 50169U 21125P   22310.73084372  .00017424  00000-0  11101-2 0  9998,2 50169  53.2154 321.2450 0002739  21.3693 338.7413 15.08840190 49496,6917.88,95.438,541.64,537.85,0.0
50169.0,STARLINK-3301,PAYLOAD,2022-11-07 06:15:30,15.08841862,0.0002788999999999,53.2153,318.8659,23.1199,336.9918,0.00050424,7.746e-05,0.0,0 STARLINK-3301,1 50169U 21125P   22311.26076454  .00007746  00000-0  50424-3 0  9997,2 50169  53.2153 318.8659 0002789  23.1199 336.9918 15.08841862 49570,6917.875,95.437,541.669,537.81,0.0
50169.0,STARLINK-3301,PAYLOAD,2022-11-07 11:01:39,15.08832247,0.0002937,53.2144,317.9726,21.3145,338.7969,0.00018395,2.64e-05,0.0,0 STARLINK-3301,1 50169U 21125P   22311.45948721  .00002640  00000-0  18395-3 0  9992,2 50169  53.2144 317.9726 0002937  21.3145 338.7969 15.08832247 49608,6917.904,95.438,541.8009999999998,537.737,0.0
50169.0,STARLINK-3301,PAYLOAD,2022-11-07 12:37:02,15.08830885,0.0002911,53.2153,317.6768,22.6725,337.4395,0.0002077,3.018e-05,0.0,0 STARLINK-3301,1 50169U 21125P   22311.52572839  .00003018  00000-0  20770-3 0  9993,2 50169  53.2153 317.6768 0002911  22.6725 337.4395 15.08830885 52701,6917.908,95.438,541.7869999999998,537.759,0.0
50169.0,STARLINK-3301,PAYLOAD,2022-11-08 06:06:16,15.08855685,0.0002816,53.2149,314.405,26.4102,333.7033,0.00065339,0.00010131,0.0,0 STARLINK-3301,1 50169U 21125P   22312.25436285  .00010131  00000-0  65339-3 0  9992,2 50169  53.2149 314.4050 0002816  26.4102 333.7033 15.08855685 49721,6917.831999999999,95.437,541.646,537.749,0.0
50169.0,STARLINK-3301,PAYLOAD,2022-11-08 09:17:03,15.08863009,0.0002792,53.2148,313.8103,27.6719,332.4422,0.0010873,0.0001706999999999,0.0,0 STARLINK-3301,1 50169U 21125P   22312.38684168  .00017070  00000-0  10873-2 0  9992,2 50169  53.2148 313.8103 0002792  27.6719 332.4422 15.08863009 52835,6917.81,95.436,541.607,537.744,0.0
50169.0,STARLINK-3301,PAYLOAD,2022-11-08 17:13:58,15.08874553,0.0002848,53.2145,312.3234,27.552,332.5623,0.0008546,0.00013352,0.0,0 STARLINK-3301,1 50169U 21125P   22312.71803499  .00013352  00000-0  85460-3 0  9993,2 50169  53.2145 312.3234 0002848  27.5520 332.5623 15.08874553 52887,6917.775,95.435,541.61,537.67,0.0
50169.0,STARLINK-3301,PAYLOAD,2022-11-09 12:18:36,15.08822284,0.0003419,53.2144,308.7548,30.2146,329.9043,-0.00068424,-0.00011158,0.0,0 STARLINK-3301,1 50169U 21125P   22313.51291920 -.00011158  00000-0 -68424-3 0  9997,2 50169  53.2144 308.7548 0003419  30.2146 329.9043 15.08822284 53008,6917.935,95.439,542.165,537.434,0.0
50169.0,STARLINK-3301,PAYLOAD,2022-11-09 17:04:45,15.08832922,0.000263,53.2146,307.8627,21.6613,338.449,-0.00026815,-4.553e-05,0.0,0 STARLINK-3301,1 50169U 21125P   22313.71163540 -.00004553  00000-0 -26815-3 0  9994,2 50169  53.2146 307.8627 0002630  21.6613 338.4490 15.08832922 49944,6917.901999999999,95.438,541.586,537.948,0.0
50169.0,STARLINK-3301,PAYLOAD,2022-11-10 08:58:36,15.08830211,0.0002885,53.2151,304.8892,23.4388,336.6735,-3.9292e-05,-9.14e-06,0.0,0 STARLINK-3301,1 50169U 21125P   22314.37403728 -.00000914  00000-0 -39292-4 0  9993,2 50169  53.2151 304.8892 0002885  23.4388 336.6735 15.08830211 53139,6917.91,95.438,541.771,537.779,0.0
50169.0,STARLINK-3301,PAYLOAD,2022-11-11 05:38:37,15.08843428,0.0002773,53.2157,301.022,29.3899,330.7249,0.00065335,0.00010126,0.0,0 STARLINK-3301,1 50169U 21125P   22315.23516103  .00010126  00000-0  65335-3 0  9991,2 50169  53.2157 301.0220 0002773  29.3899 330.7249 15.08843428 50177,6917.87,95.437,541.653,537.817,0.0
